QIANFAN-33              
1 61566U 24185Q   25297.75180321  .00000632  00000+0  44761-3 0  9991
2 61566  88.9760  84.2639 0008696 113.6470 246.5621 13.96486737 62320
QIANFAN-34              
1 61567U 24185R   25297.77528252  .00000726  00000+0  46508-3 0  9998
2 61567  88.9740  83.8900 0007419 116.1298 244.0646 14.02240388 62499
QIANFAN-35              
1 61568U 24185S   25297.78333119  .00001252  00000+0  50036-3 0  9992
2 61568  88.9766  82.6200 0008732  88.7439 271.4756 14.27841793 63196
QIANFAN-36              
1 61569U 24185T   25297.72953471  .00000182  00000+0  24489-3 0  9990
2 61569  88.9744  86.1453 0006304 168.7459 191.3837 13.55567380 61281
QIANFAN-37              
1 62238U 24232B   25297.73966491  .00000201  00000+0  29240-3 0  9996
2 62238  89.0029  46.2647 0001436 126.4406 233.6877 13.50974039 92555
QIANFAN-38              
1 62239U 24232C   25297.76426654  .00000185  00000+0  26806-3 0  9998
2 62239  89.0036  46.1748 0013492 342.9309  17.1386 13.50982433 92611
QIANFAN-39              
1 62240U 24232D   25297.77291591  .00000870  00000+0  36344-3 0  9990
2 62240  89.0031  42.8976 0014609 233.5513 126.4335 14.25307590 94413
QIANFAN-40              
1 62241U 24232E   25297.79715882  .00000201  00000+0  29257-3 0  9990
2 62241  89.0064  45.7423 0012740 351.8187   8.2754 13.50982111 92981
